{
  "links" : {
    "next" : "https://api.nasa.gov/neo/rest/v1/feed?start_date=2002-11-16&end_date=2002-11-16&detailed=true&api_key=t0TVs3DtDT2H8Oy2Zy8m2eVrNsAVKAexjcZXUckd",
    "prev" : "https://api.nasa.gov/neo/rest/v1/feed?start_date=2002-11-14&end_date=2002-11-14&detailed=true&api_key=t0TVs3DtDT2H8Oy2Zy8m2eVrNsAVKAexjcZXUckd",
    "self" : "https://api.nasa.gov/neo/rest/v1/feed?start_date=2002-11-15&end_date=2002-11-15&detailed=true&api_key=t0TVs3DtDT2H8Oy2Zy8m2eVrNsAVKAexjcZXUckd"
  },
  "element_count" : 3,
  "near_earth_objects" : {
    "2002-11-15" : [ {
      "links" : {
        "self" : "https://api.nasa.gov/neo/rest/v1/neo/3065824?api_key=t0TVs3DtDT2H8Oy2Zy8m2eVrNsAVKAexjcZXUckd"
      },
      "neo_reference_id" : "3065824",
      "name" : "(2000 WM63)",
      "nasa_jpl_url" : "http://ssd.jpl.nasa.gov/sbdb.cgi?sstr=3065824",
      "absolute_magnitude_h" : 20.6,
      "estimated_diameter" : {
        "kilometers" : {
          "estimated_diameter_min" : 0.2016299194,
          "estimated_diameter_max" : 0.4508582062
        },
        "meters" : {
          "estimated_diameter_min" : 201.6299194428,
          "estimated_diameter_max" : 450.8582061718
        },
        "miles" : {
          "estimated_diameter_min" : 0.1252869847,
          "estimated_diameter_max" : 0.2801502144
        },
        "feet" : {
          "estimated_diameter_min" : 661.5155049046,
          "estimated_diameter_max" : 1479.1936371367
        }
      },
      "is_potentially_hazardous_asteroid" : false,
      "close_approach_data" : [ {
        "close_approach_date" : "2002-11-15",
        "epoch_date_close_approach" : 1037347200000,
        "relative_velocity" : {
          "kilometers_per_second" : "16.474238544",
          "kilometers_per_hour" : "59307.2587584126",
          "miles_per_hour" : "36851.2241990814"
        },
        "miss_distance" : {
          "astronomical" : "0.3734977876",
          "lunar" : "145.2906341553",
          "kilometers" : "55874472",
          "miles" : "34718788"
        },
        "orbiting_body" : "Earth"
      } ],
      "orbital_data" : {
        "orbit_id" : "17",
        "orbit_determination_date" : "2017-04-06 09:16:40",
        "orbit_uncertainty" : "2",
        "minimum_orbit_intersection" : ".120206",
        "jupiter_tisserand_invariant" : "5.878",
        "epoch_osculation" : "2458000.5",
        "eccentricity" : ".1565637951038587",
        "semi_major_axis" : "1.029846307745644",
        "inclination" : "20.13600658022596",
        "ascending_node_longitude" : "74.52097419344584",
        "orbital_period" : "381.730667116645",
        "perihelion_distance" : ".8686096614312894",
        "perihelion_argument" : "214.5741571554734",
        "aphelion_distance" : "1.191082954059998",
        "perihelion_time" : "2457844.600670515883",
        "mean_anomaly" : "147.0244951452447",
        "mean_motion" : ".9430733001338749",
        "equinox" : "J2000"
      }
    }, {
      "links" : {
        "self" : "https://api.nasa.gov/neo/rest/v1/neo/3170202?api_key=t0TVs3DtDT2H8Oy2Zy8m2eVrNsAVKAexjcZXUckd"
      },
      "neo_reference_id" : "3170202",
      "name" : "(2003 YJ)",
      "nasa_jpl_url" : "http://ssd.jpl.nasa.gov/sbdb.cgi?sstr=3170202",
      "absolute_magnitude_h" : 20.3,
      "estimated_diameter" : {
        "kilometers" : {
          "estimated_diameter_min" : 0.2315021222,
          "estimated_diameter_max" : 0.5176544822
        },
        "meters" : {
          "estimated_diameter_min" : 231.5021222103,
          "estimated_diameter_max" : 517.6544821978
        },
        "miles" : {
          "estimated_diameter_min" : 0.1438487052,
          "estimated_diameter_max" : 0.3216554833
        },
        "feet" : {
          "estimated_diameter_min" : 759.5214226325,
          "estimated_diameter_max" : 1698.3415313737
        }
      },
      "is_potentially_hazardous_asteroid" : false,
      "close_approach_data" : [ {
        "close_approach_date" : "2002-11-15",
        "epoch_date_close_approach" : 1037347200000,
        "relative_velocity" : {
          "kilometers_per_second" : "12.1678228053",
          "kilometers_per_hour" : "43804.1620991419",
          "miles_per_hour" : "27218.202833214"
        },
        "miss_distance" : {
          "astronomical" : "0.3197879106",
          "lunar" : "124.3974990845",
          "kilometers" : "47839592",
          "miles" : "29726144"
        },
        "orbiting_body" : "Earth"
      } ],
      "orbital_data" : {
        "orbit_id" : "26",
        "orbit_determination_date" : "2017-04-06 09:13:26",
        "orbit_uncertainty" : "0",
        "minimum_orbit_intersection" : ".121209",
        "jupiter_tisserand_invariant" : "6.375",
        "epoch_osculation" : "2458000.5",
        "eccentricity" : ".1986750372778209",
        "semi_major_axis" : ".9302562928955687",
        "inclination" : "19.46966271901142",
        "ascending_node_longitude" : "89.76229875088617",
        "orbital_period" : "327.7195514182952",
        "perihelion_distance" : ".7454375892266141",
        "perihelion_argument" : "165.6380118967137",
        "aphelion_distance" : "1.115074996564523",
        "perihelion_time" : "2458047.026589925687",
        "mean_anomaly" : "308.8905306358471",
        "mean_motion" : "1.098500222040469",
        "equinox" : "J2000"
      }
    }, {
      "links" : {
        "self" : "https://api.nasa.gov/neo/rest/v1/neo/3519453?api_key=t0TVs3DtDT2H8Oy2Zy8m2eVrNsAVKAexjcZXUckd"
      },
      "neo_reference_id" : "3519453",
      "name" : "(2010 JA)",
      "nasa_jpl_url" : "http://ssd.jpl.nasa.gov/sbdb.cgi?sstr=3519453",
      "absolute_magnitude_h" : 27.0,
      "estimated_diameter" : {
        "kilometers" : {
          "estimated_diameter_min" : 0.0105816886,
          "estimated_diameter_max" : 0.023661375
        },
        "meters" : {
          "estimated_diameter_min" : 10.5816885933,
          "estimated_diameter_max" : 23.6613750114
        },
        "miles" : {
          "estimated_diameter_min" : 0.0065751544,
          "estimated_diameter_max" : 0.0147024923
        },
        "feet" : {
          "estimated_diameter_min" : 34.7168272045,
          "estimated_diameter_max" : 77.6291855923
        }
      },
      "is_potentially_hazardous_asteroid" : false,
      "close_approach_data" : [ {
        "close_approach_date" : "2002-11-15",
        "epoch_date_close_approach" : 1037347200000,
        "relative_velocity" : {
          "kilometers_per_second" : "6.6640585779",
          "kilometers_per_hour" : "23990.6108802952",
          "miles_per_hour" : "14906.8326328145"
        },
        "miss_distance" : {
          "astronomical" : "0.3707179969",
          "lunar" : "144.2093048096",
          "kilometers" : "55458624",
          "miles" : "34460392"
        },
        "orbiting_body" : "Earth"
      } ],
      "orbital_data" : {
        "orbit_id" : "12",
        "orbit_determination_date" : "2017-04-06 08:57:40",
        "orbit_uncertainty" : "6",
        "minimum_orbit_intersection" : ".00406748",
        "jupiter_tisserand_invariant" : "5.204",
        "epoch_osculation" : "2458000.5",
        "eccentricity" : ".2931548906703682",
        "semi_major_axis" : "1.215651436920391",
        "inclination" : "2.521330955804476",
        "ascending_node_longitude" : "222.36482678509",
        "orbital_period" : "489.5668790035197",
        "perihelion_distance" : ".8592772728367177",
        "perihelion_argument" : "74.97655953525529",
        "aphelion_distance" : "1.572025601004064",
        "perihelion_time" : "2457827.884427741095",
        "mean_anomaly" : "126.9318017176545",
        "mean_motion" : ".7353438629932558",
        "equinox" : "J2000"
      }
    } ]
  }
}